STARLINK-11595 [DTC]
1 63669U 25085F   26092.49861162  .00404810  00000+0  29531-2 0  9994
2 63669  43.0000 135.1486 0002791 339.0152  21.0601 15.71272835 54638
STARLINK-11726 [DTC]
1 64067U 25107D   26092.87736094  .00548449  00000+0  39310-2 0  9992
2 64067  42.9987 312.3040 0003038 243.5145 116.5412 15.71268922 51105
